#dP2023  5 13  0  0  0.00000000      96 __u+U ITR00 FIT  IAC
## 2261 518400.00000000   900.00000000 60077 0.0000000000000
+  118   C06C07C08C09C10C11C12C13C14C16C19C20C21C22C23C24C25
+        C26C27C28C29C30C32C33C34C35C36C37C38C39C40C41C42C43
+        C44C45C46E02E04E05E07E08E09E10E11E12E13E14E15E18E19
+        E21E24E25E26E27E30E31E33E34E36G01G02G03G04G05G06G07
+        G08G09G10G11G12G13G14G15G16G17G18G19G20G21G22G23G24
+        G25G26G27G28G29G30G31G32J02J03J04R01R02R03R04R05R07
+        R08R09R11R12R13R14R15R16R17R18R19R20R21R22R24R25  0
++         8 10  6  9  8  6  6  6  7  7  8  8  7  7  6  7  7
++         7  6  7  7  7  7  7  6  8  8  7  9  8  9  7  7  7
++         6  7  7  6  7  7  6  7  6  8  7  6  7  7  6  7  7
++         6  6  7  7  6  6  6  7  7  7  7  6  7  7  7  7  7
++         7  7  6  8  6  6  6  6  6  7  7  7  7  6  6  6  6
++         6  7  7  6  6  7  6  6  8  9  8  6  6  6  6  6  6
++         6  6  6  6  7  7  7  7  7  8  8  7  7  7  7  8  0
%c M  cc GPS ccc cccc cccc cccc cccc ccccc ccccc ccccc ccccc
%c cc cc ccc ccc cccc cccc cccc cccc ccccc ccccc ccccc ccccc
%f  0.0000000  0.000000000  0.00000000000  0.000000000000000
%f  0.0000000  0.000000000  0.00000000000  0.000000000000000
%i    0    0    0    0      0      0      0      0         0
%i    0    0    0    0      0      0      0      0         0
/* INFORMATION & ANALYSIS CENTER (IAC)      ULTRA-RAPID DATA
/* S/V CLOCKS ARE ALIGNED TO GNSS TIME                      
/* G:C1WC2W R:C1PC2P E:C1XC5X C:C2IC6I J:C1CC2S             
/* PCV:IGS20_2247 OL/AL:FES2004  NONE     YN ORB:CoN CLK:CoN
*  2023 05 13  1 30  0.00000000
PC06 -10035.883015  40638.625167  -3665.388594   -191.816480
PC07  -5157.044290  28105.286672  31087.256590    -10.186795
PC08 -18708.619363  24788.240815 -28613.641718    486.687214
PC09  -4381.062222  41157.011325   6760.250332    660.539860
PC10   4139.428365  31222.534531  28538.258379    -56.889211
PC11  -6019.702010 -25765.769410   8899.676515    616.115187
PC12   5568.533811 -25776.094277  -9090.306471    635.086052
PC13 -10684.123230  25693.718129 -31616.277891    273.316846
PC14 -14978.933801 -18779.136069  14170.068467    251.489668
PC16 -11901.955885  39615.817862  -7078.454087     80.275831
PC19  22167.519220  15984.295966  -5689.881160   -909.585820
PC20   7370.249097  18727.546451 -19330.489883    571.461895
PC21  13185.123600 -10292.148733  22362.788550   -914.376099
PC22  24946.088614   3949.361549  11908.476965   -491.165949
PC23 -24528.892820   4897.878462 -12367.827612   -927.145343
PC24   5990.236369 -19759.066303 -18774.420008    -61.357909
PC25 -14297.533668  -9497.695078 -22014.033881    125.359959
PC26  20351.561190 -18254.022663  -5527.386275   -119.483583
PC27 -10442.427597  20461.427087  15810.637109    139.326331
PC28 -15835.106026   2497.183763  22841.383783    103.035957
PC29  12701.938070  18716.094113 -16351.981760    119.591740
PC30   1524.747887  27847.876905    468.382634     -0.216827
PC32 -13129.634162  10365.346672 -22313.675819   -563.330455
PC33 -22159.838224 -15909.287700   5831.969782   -881.087706
PC34  -2342.513283 -27809.066566    775.208573    169.409004
PC35  15903.458154  -2234.385774 -22839.006378    628.643585
PC36  13399.583728  10394.392189  22184.591751   -445.216548
PC37 -21468.432957  17297.798302   4401.919489   -784.476313
PC38 -25091.552689  26179.401955 -21600.709616     77.960930
PC39 -12933.446519  37847.582873 -12948.213368     -2.919944
PC40  -7956.967272  22899.513257  34520.749906    -23.035886
PC41 -25122.305971  -4384.464317 -11259.543565   -946.333856
PC42  -5857.486237 -18530.582555  20062.368175   -694.642184
PC43 -12368.812070 -19486.997509  15686.899349     21.121709
PC44   9895.138853 -20712.055196 -15909.992333    104.806741
PC45  24603.041643  -5300.844718  12036.278912    -96.850371
PC46  -4513.241953  19329.799323  19627.774794    -53.623789
PE02 -16562.655965  13900.070445  20215.437525     37.786430
PE04  -9907.309585 -26915.957928   7325.274528   -121.028899
PE05 -18459.861051    697.150926 -23117.834401    -68.018476
PE07  20117.064056  18638.455016  11167.181005    -44.631144
PE08   9804.303216  26882.553561  -7594.749913    -82.127570
PE09 -20032.672316 -18769.911667 -11041.115369    -12.705170
PE10  -6137.155586 -18429.821851  22322.813513   -533.302658
PE11 -13543.512659  -8690.974861  24828.212462   1906.039591
PE12   1544.171412 -24511.428393  16530.218946   -536.241790
PE13  13039.170927   9405.055528 -24855.707901    -19.153300
PE14  -2492.786718 -24051.430089  -9332.742310    223.497692
PE15  -1796.597222  24625.072724 -16318.490613    -21.357198
PE18  14878.538821  27352.879405  -3038.188604     57.226617
PE19   7844.824402 -17554.282095  22518.815468  -2547.678520
PE21  28783.228521  -4026.779101  -5613.985333   -528.774087
PE24 -24582.983964  -9326.976227 -13632.191262    -95.585888
PE25 -28876.258699   3805.182749   5289.930633   -604.966639
PE26  20217.338073 -11780.955466 -18133.788178    102.505466
PE27  25074.639402   8785.707754  13039.787837    -48.040170
PE30   5934.193290  16432.789837  23880.396107   -168.233707
PE31  -6647.594562 -16281.164670 -23805.673173   -523.625064
PE33  15459.423814 -25188.536422  -1787.659546   -444.549641
PE34 -15323.155161  25274.255147   1617.996564    -45.116083
PE36 -20040.212742  11104.751350  18730.239498    -55.245461
PG01 -14158.183182  22239.761294   -311.250818    185.779716
PG02 -14881.336493  -4433.284306  22144.661823   -596.808265
PG03 -12610.465284  12790.863089 -19654.115080   -304.972138
PG04  -3994.111170  19527.063643 -17486.114147     39.976843
PG05  25031.884796  -5279.314679   7191.313832   -126.977485
PG06  11599.569388   8864.114559 -22124.896439    588.080982
PG07  -2852.939779  22713.711816  13496.493106    179.643680
PG08 -12553.477745   8676.987319  21651.755875   -122.137972
PG09   5518.717620  24038.461476  -9868.749867   -160.137708
PG10 -18325.582145 -11300.090830  15935.043378    -36.687205
PG11  18899.059055  -5631.793032 -17768.223987   -194.785667
PG12  15955.715450 -11099.092597 -18342.209005   -375.318092
PG13  15584.246535    -83.546221  21358.812043    519.111291
PG14  15271.981685  13357.364370  17227.550834     54.928602
PG15  11362.352383 -10830.950772  20955.280360     39.003549
PG16 -26406.973490   -239.096254   4280.412315   -501.514447
PG17  13354.983620  22424.832266  -4178.478396    714.561576
PG18   1016.523295 -21263.198785  15784.097614   -263.847215
PG19  16309.388211  16880.273536 -12939.913660    316.105350
PG20  26285.215355  -1915.286572  -2264.837049    433.894448
PG21 -16809.660415  17642.950732   9984.468231    153.845557
PG22 -17022.129344 -14027.422530 -14460.007438    480.318178
PG23  -5914.096121 -14586.560502  21421.500956     23.734915
PG24  14651.491632 -21305.443392   4641.449827   -186.576930
PG25   3279.113052 -15350.748777 -21719.470786    442.393186
PG26 -24938.876042  -5217.030412  -8213.515683    240.858670
PG27 -17369.433618  -3749.739807  19620.311708     38.737890
PG28 -11148.875603 -10804.430928 -21574.205429     76.976767
PG29  -1116.765860 -23427.870469 -12436.292111   -599.204897
PG30   6632.349944  16601.728257  19673.995353   -517.519452
PG31 -17182.368392   -309.852290 -20539.534383   -215.992956
PG32 -16167.538652 -20122.640012  -6505.520213   -475.075456
PJ02 -29430.594003  23772.072668  23628.709400      0.041180
PJ03 -29648.509217  26660.066614  18712.589862      4.018604
PJ04 -27338.923499  19535.174618 -20289.017335     94.503570
PR01   9196.671815  -6756.640042  22821.210799     57.385711
PR02  -7555.139342 -16741.931394  17779.868650    -22.854766
PR03 -19249.918714 -16613.163137   2417.606693     77.697497
PR04 -19912.185122  -7564.525285 -14006.952994    186.939923
PR05  -9906.433015   5652.580774 -22800.937035    112.460418
PR07  19542.458659  16289.646645  -1432.527159     55.792159
PR08  19925.885838   7153.062857  14272.683832    -70.756414
PR09  -4436.945110  13375.577572  21260.375170    119.835479
PR11  23009.429462  -4397.508964  10124.923728    -54.701856
PR12  20180.626126 -12805.201044  -8868.940144     27.204202
PR13   6687.829033 -13525.056630 -20580.933507    -34.982854
PR14 -12960.650866  -5756.094386 -21185.900335     24.657149
PR15 -23385.912890   4858.807404  -8925.626056     89.364896
PR16 -20260.472403  12841.539093   8634.540007     14.489281
PR17  -6138.726185 -16258.612752  18658.436974    629.443148
PR18 -10669.096791    746.656119  23162.654214     81.221304
PR19 -10612.092525  16088.513780  16702.552441   -232.415474
PR20  -3565.393323  25082.312527  -2760.376133    -92.767743
PR21   6573.177497  14991.770803 -19576.952508     -7.029400
PR22  11237.598065  -1413.675263 -22835.340481     81.742205
PR24   2339.795071 -25170.510562   3382.959050    169.828079
PR25   5539.746634  16751.845267 -18428.556223     60.989073
EOF
